NOAA 1                  
1 04793U 70106A   25290.05174384 -.00000036  00000+0  40049-4 0  9997
2 04793 101.3760 330.0238 0031942 103.5983 323.2255 12.54045817510218
NOAA 2 (ITOS-D)         
1 06235U 72082A   25290.12985078 -.00000003  00000+0  27591-3 0  9993
2 06235 102.0235 300.9244 0003822 275.1296 171.5296 12.53205927424502
NOAA 3                  
1 06920U 73086A   25290.11515611 -.00000005  00000+0  31003-3 0  9995
2 06920 102.2938 296.7116 0006265 210.8221 237.1984 12.40386939351762
NOAA 4                  
1 07529U 74089A   25290.18911308 -.00000010  00000+0  22841-3 0  9991
2 07529 102.0092 295.4055 0008834 301.6888 148.9994 12.53197407329081
NOAA 5                  
1 09057U 76077A   25289.68267043 -.00000009  00000+0  28280-3 0  9992
2 09057 102.2759 269.5748 0010126  64.4052 109.0335 12.37822958224344
TIROS N                 
1 11060U 78096A   25290.06756579  .00000279  00000+0  15299-3 0  9997
2 11060  98.4782 316.8864 0009659 222.3790 137.6642 14.19253427644267
NOAA 6                  
1 11416U 79057A   25290.16085384  .00000514  00000+0  19495-3 0  9994
2 11416  98.5914 316.0967 0008742 257.2318 102.7890 14.35287429416094
NOAA 7                  
1 12553U 81059A   25290.11449797  .00000092  00000+0  66860-4 0  9999
2 12553  98.8302 354.1938 0010520 240.8152 119.1971 14.17734522290300
NOAA 8                  
1 13923U 83022A   25290.15913392  .00000265  00000+0  12065-3 0  9993
2 13923  98.7401 297.5061 0013751 248.0563 111.9157 14.29689453216346
NOAA 9                  
1 15427U 84123A   25290.17089184  .00000215  00000+0  13025-3 0  9994
2 15427  99.1206 305.9386 0013998 321.3650 127.0008 14.16973345109003
NOAA 10                 
1 16969U 86073A   25290.01891141  .00000304  00000+0  13736-3 0  9997
2 16969  98.6877 278.8422 0011967 353.0564  83.8784 14.29064124 34683
NOAA 11                 
1 19531U 88089A   25289.61725282  .00000127  00000+0  86201-4 0  9991
2 19531  98.5868 238.6872 0009959 278.6709  81.3337 14.15777235913013
NOAA 12                 
1 21263U 91032A   25290.19267916  .00000211  00000+0  10524-3 0  9996
2 21263  98.6011 277.5854 0014121  22.8430 337.3376 14.26654281790318
NOAA 13                 
1 22739U 93050A   25289.61097897  .00000182  00000+0  11933-3 0  9993
2 22739  98.6711 236.5440 0010474 102.6700 257.5644 14.13571950658966
NOAA 14                 
1 23455U 94089A   25290.17195405  .00000139  00000+0  93808-4 0  9993
2 23455  98.4811 266.3967 0010543  64.8034 295.4232 14.14614201588843
NOAA 15                 
1 25338U 98030A   25290.10669001  .00000259  00000+0  12413-3 0  9991
2 25338  98.5286 312.0839 0009892 346.3375  13.7537 14.27036805426628
NOAA 16                 
1 26536U 00055A   25290.15209146  .00000152  00000+0  10167-3 0  9993
2 26536  98.4812 312.0967 0009241 280.4064  79.6068 14.13844881589385
NOAA 17                 
1 27453U 02032A   25290.20073007  .00000351  00000+0  16565-3 0  9999
2 27453  98.8298 248.5243 0011345 341.5026  18.5740 14.26082861212356
NOAA 18                 
1 28654U 05018A   25290.21926067  .00000175  00000+0  11608-3 0  9991
2 28654  98.8340   8.1863 0015186 119.8981 240.3703 14.13652806 51981
NOAA 19                 
1 33591U 09005A   25290.10498215  .00000101  00000+0  77971-4 0  9999
2 33591  98.9840 355.4539 0013680   2.3067 357.8166 14.13418472860141
SUOMI NPP               
1 37849U 11061A   25290.16414389  .00000181  00000+0  10699-3 0  9991
2 37849  98.7674 228.0405 0000978   3.7630 356.3553 14.19530919723967
NOAA 20 (JPSS-1)        
1 43013U 17073A   25290.10797194  .00000118  00000+0  76940-4 0  9994
2 43013  98.7500 227.0513 0000218 162.5474 197.5710 14.19502897409988
NOAA 21 (JPSS-2)        
1 54234U 22150A   25290.14397692  .00000158  00000+0  95596-4 0  9998
2 54234  98.7363 227.1832 0002126 131.0311 229.1049 14.19573161152061